STARLINK-37616          
1 69040U 26101R   26132.83335648 -.02202596  12789-2 -75650-2 0  9995
2 69040  97.2887 346.9511 0001182  94.1935 259.1364 15.89792303  2283
