{
  "norad_id": 69040,
  "name": "STARLINK-37616",
  "history": [
    {
      "epoch": "2026-05-12T20:00:01.999008Z",
      "apogee_km": 303.6550479584621,
      "perigee_km": 302.07432295968283,
      "latitude_deg": -6.79910158356611,
      "longitude_deg": 177.20939761144018,
      "height_km": 307.33359356963234,
      "semi_major_axis_km": 6681.001685459072,
      "eccentricity": 0.0001183,
      "inclination_deg": 97.2887,
      "raan_deg": 346.9511,
      "arg_perigee_deg": 94.1935,
      "mean_anomaly_deg": 259.1364,
      "mean_motion_rev_day": 15.89792303
    }
  ]
}